COMMENT,ORIGINATOR,NORAD_CAT_ID,OBJECT_NAME,OBJECT_TYPE,CLASSIFICATION_TYPE,INTLDES,EPOCH,EPOCH_MICROSECONDS,MEAN_MOTION,ECCENTRICITY,INCLINATION,RA_OF_ASC_NODE,ARG_OF_PERICENTER,MEAN_ANOMALY,EPHEMERIS_TYPE,ELEMENT_SET_NO,REV_AT_EPOCH,BSTAR,MEAN_MOTION_DOT,MEAN_MOTION_DDOT,FILE,TLE_LINE0,TLE_LINE1,TLE_LINE2,OBJECT_ID,OBJECT_NUMBER,SEMIMAJOR_AXIS,PERIOD,APOGEE,PERIGEE,DECAYED
GENERATED VIA SPACETRACK.ORG API,18 SPCS,26998,TIMED,PAYLOAD,U,01055B,2/24/24 14:14,121344,14.90825225,0.0002036,74.0707,128.3971,251.6616,108.4345,0,999,20489,0.00022615,0.00002189,0,4197491,0 TIMED,1 26998U 01055B   24055.59368196  .00002189  00000-0  22615-3 0  9997,2 26998  74.0707 128.3971 0002036 251.6616 108.4345 14.90825225204896,2001-055B,26998,6973.498,96.591,596.783,593.943,0
GENERATED VIA SPACETRACK.ORG API,18 SPCS,26998,TIMED,PAYLOAD,U,01055B,2/24/24 15:51,23584,14.90825507,0.0002034,74.0707,128.2629,251.7914,108.3046,0,999,20504,0.00022509,0.00002179,0,4197574,0 TIMED,1 26998U 01055B   24055.66078731  .00002179  00000-0  22509-3 0  9999,2 26998  74.0707 128.2629 0002034 251.7914 108.3046 14.90825507205043,2001-055B,26998,6973.497,96.591,596.781,593.944,0
GENERATED VIA SPACETRACK.ORG API,18 SPCS,26998,TIMED,PAYLOAD,U,01055B,2/24/24 15:51,22720,14.90825117,0.0002048,74.0718,128.2632,252.6041,107.4917,0,999,20490,0.00021928,0.00002122,0,4197760,0 TIMED,1 26998U 01055B   24055.66078730  .00002122  00000-0  21928-3 0  9990,2 26998  74.0718 128.2632 0002048 252.6041 107.4917 14.90825117204903,2001-055B,26998,6973.498,96.591,596.792,593.935,0
GENERATED VIA SPACETRACK.ORG API,18 SPCS,26998,TIMED,PAYLOAD,U,01055B,2/25/24 14:24,611744,14.90829093,0.0002021,74.0706,126.3849,251.2369,108.8594,0,999,20504,0.0002174,0.00002103,0,4198379,0 TIMED,1 26998U 01055B   24056.60026171  .00002103  00000-0  21740-3 0  9998,2 26998  74.0706 126.3849 0002021 251.2369 108.8594 14.90829093205047,2001-055B,26998,6973.486,96.591,596.76,593.942,0
GENERATED VIA SPACETRACK.ORG API,18 SPCS,26998,TIMED,PAYLOAD,U,01055B,2/25/24 22:27,78016,14.90830335,0.0002015,74.0705,125.7141,251.1627,108.9337,0,999,20509,0.00021553,0.00002085,0,4198683,0 TIMED,1 26998U 01055B   24056.93578794  .00002085  00000-0  21553-3 0  9998,2 26998  74.0705 125.7141 0002015 251.1627 108.9337 14.90830335205095,2001-055B,26998,6973.482,96.59,596.752,593.942,0
GENERATED VIA SPACETRACK.ORG API,18 SPCS,26998,TIMED,PAYLOAD,U,01055B,2/26/24 3:17,750176,14.90830922,0.0002001,74.0705,125.3116,250.5515,109.5451,0,999,20526,0.00021111,0.00002041,0,4198788,0 TIMED,1 26998U 01055B   24057.13710359  .00002041  00000-0  21111-3 0  9998,2 26998  74.0705 125.3116 0002001 250.5515 109.5451 14.90830922205262,2001-055B,26998,6973.48,96.59,596.741,593.95,0
GENERATED VIA SPACETRACK.ORG API,18 SPCS,26998,TIMED,PAYLOAD,U,01055B,2/26/24 14:33,924160,14.908325,0.0001997,74.0704,124.3726,250.4216,109.6751,0,999,20519,0.00020521,0.00001983,0,4199244,0 TIMED,1 26998U 01055B   24057.60683940  .00001983  00000-0  20521-3 0  9993,2 26998  74.0704 124.3726 0001997 250.4216 109.6751 14.90832500205197,2001-055B,26998,6973.475,96.59,596.733,593.948,0
GENERATED VIA SPACETRACK.ORG API,18 SPCS,26998,TIMED,PAYLOAD,U,01055B,2/26/24 14:33,932800,14.90832345,0.0001997,74.0704,124.3726,250.4266,109.6701,0,999,20519,0.00020285,0.0000196,0,4199532,0 TIMED,1 26998U 01055B   24057.60683950  .00001960  00000-0  20285-3 0  9996,2 26998  74.0704 124.3726 0001997 250.4266 109.6701 14.90832345205194,2001-055B,26998,6973.476,96.59,596.733,593.948,0
GENERATED VIA SPACETRACK.ORG API,18 SPCS,26998,TIMED,PAYLOAD,U,01055B,2/27/24 3:26,931264,14.9083431,0.0001982,74.0704,123.2994,249.7279,110.369,0,999,20541,0.00019956,0.00001928,0,4199570,0 TIMED,1 26998U 01055B   24058.14367976  .00001928  00000-0  19956-3 0  9990,2 26998  74.0704 123.2994 0001982 249.7279 110.3690 14.90834310205413,2001-055B,26998,6973.47,96.59,596.717,593.953,0
GENERATED VIA SPACETRACK.ORG API,18 SPCS,26998,TIMED,PAYLOAD,U,01055B,2/27/24 14:43,32672,14.90834979,0.0001979,74.0703,122.3602,249.6073,110.4897,0,999,20534,0.00017948,0.0000173,0,4200159,0 TIMED,1 26998U 01055B   24058.61341473  .00001730  00000-0  17948-3 0  9996,2 26998  74.0703 122.3602 0001979 249.6073 110.4897 14.90834979205348,2001-055B,26998,6973.468,96.59,596.713,593.953,0
GENERATED VIA SPACETRACK.ORG API,18 SPCS,26998,TIMED,PAYLOAD,U,01055B,2/27/24 21:09,510304,14.90835619,0.0001972,74.0702,121.8236,249.4958,110.6012,0,999,20538,0.00017392,0.00001675,0,4200457,0 TIMED,1 26998U 01055B   24058.88183461  .00001675  00000-0  17392-3 0  9997,2 26998  74.0702 121.8236 0001972 249.4958 110.6012 14.90835619205384,2001-055B,26998,6973.466,96.59,596.706,593.956,0
GENERATED VIA SPACETRACK.ORG API,18 SPCS,26998,TIMED,PAYLOAD,U,01055B,2/28/24 5:12,812416,14.90836745,0.0001971,74.0702,121.1529,249.2656,110.8315,0,999,20557,0.00017157,0.00001652,0,4200468,0 TIMED,1 26998U 01055B   24059.21735894  .00001652  00000-0  17157-3 0  9992,2 26998  74.0702 121.1529 0001971 249.2656 110.8315 14.90836745205574,2001-055B,26998,6973.462,96.59,596.702,593.953,0
GENERATED VIA SPACETRACK.ORG API,18 SPCS,26998,TIMED,PAYLOAD,U,01055B,2/28/24 13:16,109344,14.90837151,0.0001965,74.0701,120.4821,249.2297,110.8675,0,999,20548,0.00015772,0.00001515,0,4201083,0 TIMED,1 26998U 01055B   24059.55288321  .00001515  00000-0  15772-3 0  9996,2 26998  74.0701 120.4821 0001965 249.2297 110.8675 14.90837151205485,2001-055B,26998,6973.461,96.59,596.696,593.956,0
GENERATED VIA SPACETRACK.ORG API,18 SPCS,26998,TIMED,PAYLOAD,U,01055B,2/28/24 21:19,388992,14.90838039,0.0001959,74.07,119.8112,248.8493,111.248,0,999,20553,0.00015244,0.00001463,0,4201365,0 TIMED,1 26998U 01055B   24059.88840728  .00001463  00000-0  15244-3 0  9993,2 26998  74.0700 119.8112 0001959 248.8493 111.2480 14.90838039205536,2001-055B,26998,6973.458,96.59,596.689,593.957,0
GENERATED VIA SPACETRACK.ORG API,18 SPCS,26998,TIMED,PAYLOAD,U,01055B,2/29/24 11:48,31360,14.9084017,0.0001946,74.0699,118.6039,248.5379,111.5596,0,999,20576,0.00015494,0.00001488,0,4201727,0 TIMED,1 26998U 01055B   24060.49234990  .00001488  00000-0  15494-3 0  9994,2 26998  74.0699 118.6039 0001946 248.5379 111.5596 14.90840170205769,2001-055B,26998,6973.451,96.59,596.674,593.959,0
GENERATED VIA SPACETRACK.ORG API,18 SPCS,26998,TIMED,PAYLOAD,U,01055B,2/29/24 15:02,716608,14.90840228,0.0001941,74.0699,118.3355,248.5641,111.5334,0,999,20564,0.00014686,0.00001409,0,4201938,0 TIMED,1 26998U 01055B   24060.62655922  .00001409  00000-0  14686-3 0  9996,2 26998  74.0699 118.3355 0001941 248.5641 111.5334 14.90840228205645,2001-055B,26998,6973.451,96.59,596.67,593.963,0
GENERATED VIA SPACETRACK.ORG API,18 SPCS,26998,TIMED,PAYLOAD,U,01055B,2/29/24 21:28,92288,14.90840957,0.0001932,74.0699,117.7989,248.2696,111.828,0,999,20568,0.0001441,0.00001381,0,4202276,0 TIMED,1 26998U 01055B   24060.89497792  .00001381  00000-0  14410-3 0  9998,2 26998  74.0699 117.7989 0001932 248.2696 111.8280 14.90840957205684,2001-055B,26998,6973.449,96.59,596.661,593.967,0
GENERATED VIA SPACETRACK.ORG API,18 SPCS,26998,TIMED,PAYLOAD,U,01055B,3/1/24 11:58,617152,14.90843367,0.0001926,74.0698,116.5915,248.1157,111.982,0,999,20591,0.00015156,0.00001455,0,4202608,0 TIMED,1 26998U 01055B   24061.49891918  .00001455  00000-0  15156-3 0  9993,2 26998  74.0698 116.5915 0001926 248.1157 111.9820 14.90843367205918,2001-055B,26998,6973.442,96.59,596.65,593.963,0
GENERATED VIA SPACETRACK.ORG API,18 SPCS,26998,TIMED,PAYLOAD,U,01055B,3/1/24 13:35,441632,14.90843547,0.0001921,74.0698,116.4574,248.0715,112.0263,0,999,20578,0.00015031,0.00001443,0,4202819,0 TIMED,1 26998U 01055B   24061.56602363  .00001443  00000-0  15031-3 0  9994,2 26998  74.0698 116.4574 0001921 248.0715 112.0263 14.90843547205780,2001-055B,26998,6973.441,96.59,596.646,593.966,0
GENERATED VIA SPACETRACK.ORG API,18 SPCS,26998,TIMED,PAYLOAD,U,01055B,3/2/24 12:07,16320,14.90846815,0.0001903,74.0696,114.5791,247.1754,112.9227,0,999,20606,0.0001548,0.00001487,0,4203985,0 TIMED,1 26998U 01055B   24062.50548630  .00001487  00000-0  15480-3 0  9991,2 26998  74.0696 114.5791 0001903 247.1754 112.9227 14.90846815206063,2001-055B,26998,6973.431,96.589,596.623,593.969,0
GENERATED VIA SPACETRACK.ORG API,18 SPCS,26998,TIMED,PAYLOAD,U,01055B,3/2/24 12:07,16320,14.90846815,0.0001903,74.0696,114.5791,247.1754,112.9227,0,999,20592,0.0001548,0.00001487,0,4204354,0 TIMED,1 26998U 01055B   24062.50548630  .00001487  00000-0  15480-3 0  9991,2 26998  74.0696 114.5791 0001903 247.1754 112.9227 14.90846815205927,2001-055B,26998,6973.431,96.589,596.623,593.969,0
GENERATED VIA SPACETRACK.ORG API,18 SPCS,26998,TIMED,PAYLOAD,U,01055B,3/3/24 12:17,253056,14.90850184,0.0001898,74.0695,112.5667,246.9586,113.1396,0,999,20621,0.00016093,0.00001548,0,4205828,0 TIMED,1 26998U 01055B   24063.51205154  .00001548  00000-0  16093-3 0  9993,2 26998  74.0695 112.5667 0001898 246.9586 113.1396 14.90850184206216,2001-055B,26998,6973.42,96.589,596.609,593.962,0
GENERATED VIA SPACETRACK.ORG API,18 SPCS,26998,TIMED,PAYLOAD,U,01055B,3/3/24 13:53,86176,14.90849781,0.0001898,74.0695,112.4325,247.0482,113.05,0,999,20608,0.00015102,0.0000145,0,4206173,0 TIMED,1 26998U 01055B   24063.57915609  .00001450  00000-0  15102-3 0  9994,2 26998  74.0695 112.4325 0001898 247.0482 113.0500 14.90849781206085,2001-055B,26998,6973.422,96.589,596.61,593.963,0
GENERATED VIA SPACETRACK.ORG API,18 SPCS,26998,TIMED,PAYLOAD,U,01055B,3/4/24 12:26,247008,14.90853117,0.0001876,74.0693,110.5542,246.4758,113.6227,0,999,20622,0.00015514,0.00001491,0,4208022,0 TIMED,1 26998U 01055B   24064.51861397  .00001491  00000-0  15514-3 0  9995,2 26998  74.0693 110.5542 0001876 246.4758 113.6227 14.90853117206224,2001-055B,26998,6973.411,96.589,596.584,593.968,0
